{
  "norad_id": 66172,
  "name": "STARLINK-35627",
  "history": [
    {
      "epoch": "2026-03-28T22:17:04.077888Z",
      "apogee_km": 475.81660481195286,
      "perigee_km": 474.50885815719175,
      "latitude_deg": -5.7653742407406215e-06,
      "longitude_deg": 172.85507806544987,
      "height_km": 476.0538921319743,
      "semi_major_axis_km": 6853.2997314845725,
      "eccentricity": 9.541e-05,
      "inclination_deg": 53.1616,
      "raan_deg": 333.464,
      "arg_perigee_deg": 89.341,
      "mean_anomaly_deg": 270.77,
      "mean_motion_rev_day": 15.30217529
    },
    {
      "epoch": "2026-03-28T23:51:07.496928Z",
      "apogee_km": 476.09094127107437,
      "perigee_km": 474.32689003238556,
      "latitude_deg": 3.9818911109926394e-05,
      "longitude_deg": 148.97338628251183,
      "height_km": 475.88729992863915,
      "semi_major_axis_km": 6853.345915651729,
      "eccentricity": 0.0001287,
      "inclination_deg": 53.1614,
      "raan_deg": 333.1609,
      "arg_perigee_deg": 75.565,
      "mean_anomaly_deg": 284.5494,
      "mean_motion_rev_day": 15.30202061
    },
    {
      "epoch": "2026-03-30T00:55:58.534752Z",
      "apogee_km": 475.8350748537796,
      "perigee_km": 474.61791749685744,
      "latitude_deg": 2.4226273958951087e-05,
      "longitude_deg": 126.87738396137894,
      "height_km": 476.20137424374866,
      "semi_major_axis_km": 6853.363496175318,
      "eccentricity": 8.88e-05,
      "inclination_deg": 53.1604,
      "raan_deg": 328.3076,
      "arg_perigee_deg": 97.197,
      "mean_anomaly_deg": 262.9132,
      "mean_motion_rev_day": 15.30196173
    },
    {
      "epoch": "2026-03-30T00:55:58.535616Z",
      "apogee_km": 475.835280454683,
      "perigee_km": 474.6177118959522,
      "latitude_deg": 2.147933583424274e-05,
      "longitude_deg": 126.8773783049691,
      "height_km": 476.20140000120875,
      "semi_major_axis_km": 6853.363496175318,
      "eccentricity": 8.883e-05,
      "inclination_deg": 53.1604,
      "raan_deg": 328.3076,
      "arg_perigee_deg": 97.197,
      "mean_anomaly_deg": 262.9132,
      "mean_motion_rev_day": 15.30196173
    },
    {
      "epoch": "2026-03-30T08:46:14.823840Z",
      "apogee_km": 476.2083573988166,
      "perigee_km": 474.2016988529813,
      "latitude_deg": 5.368336773298662e-05,
      "longitude_deg": 7.470545691610278,
      "height_km": 476.14790518155587,
      "semi_major_axis_km": 6853.342028125899,
      "eccentricity": 0.0001464,
      "inclination_deg": 53.1605,
      "raan_deg": 326.7905,
      "arg_perigee_deg": 92.5719,
      "mean_anomaly_deg": 267.545,
      "mean_motion_rev_day": 15.30203363
    },
    {
      "epoch": "2026-03-30T21:18:40.149216Z",
      "apogee_km": 475.86712574694866,
      "perigee_km": 474.47247781278566,
      "latitude_deg": 3.606184273005952e-05,
      "longitude_deg": 176.42359614784877,
      "height_km": 476.1490107026061,
      "semi_major_axis_km": 6853.306801779867,
      "eccentricity": 0.00010175,
      "inclination_deg": 53.1595,
      "raan_deg": 324.3641,
      "arg_perigee_deg": 96.657,
      "mean_anomaly_deg": 263.4547,
      "mean_motion_rev_day": 15.30215161
    },
    {
      "epoch": "2026-03-31T20:49:28.075584Z",
      "apogee_km": 475.8477519700464,
      "perigee_km": 474.49764995895566,
      "latitude_deg": 9.54093602316025e-06,
      "longitude_deg": 178.20632708910895,
      "height_km": 476.2437998524108,
      "semi_major_axis_km": 6853.309700964501,
      "eccentricity": 9.85e-05,
      "inclination_deg": 53.1594,
      "raan_deg": 319.8122,
      "arg_perigee_deg": 104.8193,
      "mean_anomaly_deg": 255.2917,
      "mean_motion_rev_day": 15.3021419
    },
    {
      "epoch": "2026-03-31T23:57:34.578432Z",
      "apogee_km": 475.9001976623058,
      "perigee_km": 474.51198448577816,
      "latitude_deg": 2.9010745827551904e-05,
      "longitude_deg": 130.4436909676769,
      "height_km": 476.20179481889573,
      "semi_major_axis_km": 6853.343091074042,
      "eccentricity": 0.00010128,
      "inclination_deg": 53.1587,
      "raan_deg": 319.2054,
      "arg_perigee_deg": 98.0676,
      "mean_anomaly_deg": 262.044,
      "mean_motion_rev_day": 15.30203007
    },
    {
      "epoch": "2026-04-02T21:25:06.865248Z",
      "apogee_km": 475.8493723945694,
      "perigee_km": 474.34166124086823,
      "latitude_deg": 2.8326464342753744e-05,
      "longitude_deg": 157.89443041583544,
      "height_km": 476.02896094864855,
      "semi_major_axis_km": 6853.2325168177185,
      "eccentricity": 0.00011,
      "inclination_deg": 53.1591,
      "raan_deg": 310.4076,
      "arg_perigee_deg": 92.678,
      "mean_anomaly_deg": 267.4347,
      "mean_motion_rev_day": 15.30240041
    },
    {
      "epoch": "2026-04-02T21:25:06.866112Z",
      "apogee_km": 475.8496465238695,
      "perigee_km": 474.3413871115681,
      "latitude_deg": 2.4627835210866956e-05,
      "longitude_deg": 157.8944240502669,
      "height_km": 476.0289737581166,
      "semi_major_axis_km": 6853.2325168177185,
      "eccentricity": 0.00011004,
      "inclination_deg": 53.1591,
      "raan_deg": 310.4076,
      "arg_perigee_deg": 92.678,
      "mean_anomaly_deg": 267.4347,
      "mean_motion_rev_day": 15.30240041
    },
    {
      "epoch": "2026-04-03T20:55:55.011072Z",
      "apogee_km": 475.8864602538233,
      "perigee_km": 474.65832929028056,
      "latitude_deg": -3.155216689755962e-05,
      "longitude_deg": 159.67591826096785,
      "height_km": 476.25616960878,
      "semi_major_axis_km": 6853.409394772052,
      "eccentricity": 8.96e-05,
      "inclination_deg": 53.1585,
      "raan_deg": 305.8554,
      "arg_perigee_deg": 97.9896,
      "mean_anomaly_deg": 262.1206,
      "mean_motion_rev_day": 15.30180801
    },
    {
      "epoch": "2026-04-04T20:26:43.315872Z",
      "apogee_km": 475.81344580238056,
      "perigee_km": 474.6346677006195,
      "latitude_deg": -1.9604076927574307e-05,
      "longitude_deg": 161.45909458018076,
      "height_km": 476.1156261830137,
      "semi_major_axis_km": 6853.3610567515,
      "eccentricity": 8.6e-05,
      "inclination_deg": 53.1588,
      "raan_deg": 301.3055,
      "arg_perigee_deg": 89.3264,
      "mean_anomaly_deg": 270.7835,
      "mean_motion_rev_day": 15.3019699
    },
    {
      "epoch": "2026-04-05T13:41:18.492288Z",
      "apogee_km": 475.8925824074249,
      "perigee_km": 474.45640245107097,
      "latitude_deg": -7.015716822966044e-06,
      "longitude_deg": -101.23231474409755,
      "height_km": 475.99659842781557,
      "semi_major_axis_km": 6853.311492429248,
      "eccentricity": 0.00010478,
      "inclination_deg": 53.1592,
      "raan_deg": 297.9688,
      "arg_perigee_deg": 83.9086,
      "mean_anomaly_deg": 276.2034,
      "mean_motion_rev_day": 15.3021359
    },
    {
      "epoch": "2026-04-05T19:57:31.129056Z",
      "apogee_km": 475.6459873552021,
      "perigee_km": 474.738880671317,
      "latitude_deg": -2.815656721126551e-05,
      "longitude_deg": 163.24310882234667,
      "height_km": 475.9834746721459,
      "semi_major_axis_km": 6853.32943401326,
      "eccentricity": 6.618e-05,
      "inclination_deg": 53.1592,
      "raan_deg": 296.7544,
      "arg_perigee_deg": 76.2517,
      "mean_anomaly_deg": 283.8557,
      "mean_motion_rev_day": 15.30207581
    },
    {
      "epoch": "2026-04-07T18:59:06.942912Z",
      "apogee_km": 475.97667720978643,
      "perigee_km": 474.423711001602,
      "latitude_deg": -1.992871001399016e-05,
      "longitude_deg": 166.8112710012572,
      "height_km": 476.0449499079118,
      "semi_major_axis_km": 6853.337194105694,
      "eccentricity": 0.0001133,
      "inclination_deg": 53.1613,
      "raan_deg": 287.6531,
      "arg_perigee_deg": 86.0377,
      "mean_anomaly_deg": 274.0753,
      "mean_motion_rev_day": 15.30204982
    },
    {
      "epoch": "2026-04-08T12:13:42.279168Z",
      "apogee_km": 475.6884605610767,
      "perigee_km": 474.733515052455,
      "latitude_deg": -2.055670284091038e-05,
      "longitude_deg": -95.88231701820261,
      "height_km": 476.0247560464635,
      "semi_major_axis_km": 6853.347987806766,
      "eccentricity": 6.967e-05,
      "inclination_deg": 53.1598,
      "raan_deg": 284.3149,
      "arg_perigee_deg": 79.7372,
      "mean_anomaly_deg": 280.3707,
      "mean_motion_rev_day": 15.30201367
    },
    {
      "epoch": "2026-04-09T19:34:46.580160Z",
      "apogee_km": 475.96113331568904,
      "perigee_km": 474.37390798870547,
      "latitude_deg": -1.3265479270987222e-05,
      "longitude_deg": 146.49511591015235,
      "height_km": 475.534855645833,
      "semi_major_axis_km": 6853.3045206521965,
      "eccentricity": 0.0001158,
      "inclination_deg": 53.1591,
      "raan_deg": 278.2478,
      "arg_perigee_deg": 47.9824,
      "mean_anomaly_deg": 312.1275,
      "mean_motion_rev_day": 15.30215925
    },
    {
      "epoch": "2026-04-10T11:15:17.739648Z",
      "apogee_km": 475.4857167643577,
      "perigee_km": 474.85521247761335,
      "latitude_deg": 2.9542246362776025e-05,
      "longitude_deg": -92.31154765360607,
      "height_km": 476.12526816605424,
      "semi_major_axis_km": 6853.307464620985,
      "eccentricity": 4.6e-05,
      "inclination_deg": 53.1605,
      "raan_deg": 275.2147,
      "arg_perigee_deg": 100.1581,
      "mean_anomaly_deg": 259.9472,
      "mean_motion_rev_day": 15.30214939
    },
    {
      "epoch": "2026-04-11T18:36:21.871296Z",
      "apogee_km": 475.40471035676364,
      "perigee_km": 474.9647271024205,
      "latitude_deg": 2.5574723630003093e-05,
      "longitude_deg": 150.06568583360013,
      "height_km": 476.03815162627546,
      "semi_major_axis_km": 6853.321718729591,
      "eccentricity": 3.21e-05,
      "inclination_deg": 53.1594,
      "raan_deg": 269.1467,
      "arg_perigee_deg": 77.9765,
      "mean_anomaly_deg": 282.1272,
      "mean_motion_rev_day": 15.30210165
    }
  ]
}